{"type": "FeatureCollection", "features": [ {"type": "Feature", "properties": {"norad_id": 17070, "name": "POLAR BEAR", "group": "nnss", "lat": -4.734071330415251, "lon": -176.46804559878558, "alt_km": 993.9640425349398, "timestamp": "2025-12-17T23:38:07.122555+00:00", "meta": {"OBJECT_NAME": "POLAR BEAR", "OBJECT_ID": "1986-088A", "EPOCH": "2025-12-17T13:26:31.356096", "MEAN_MOTION": 13.75251777, "ECCENTRICITY": 0.00412006, "INCLINATION": 89.6171, "RA_OF_ASC_NODE": 183.5808, "ARG_OF_PERICENTER": 105.3442, "MEAN_ANOMALY": 309.0213, "EPHEMERIS_TYPE": 0, "CLASSIFICATION_TYPE": "U", "NORAD_CAT_ID": 17070, "ELEMENT_SET_NO": 999, "REV_AT_EPOCH": 96045, "BSTAR": 0.0001101085, "MEAN_MOTION_DOT": 1.18e-06, "MEAN_MOTION_DDOT": 0}, "tle": {"line1": "1 17070U 86088A   25351.56008514  .00000118  00000+0  11011-3 0  9996", "line2": "2 17070  89.6171 183.5808 0041200 105.3442 309.0213 13.75251777960455"}}, "geometry": {"type": "Point", "coordinates": [-176.46804559878558, -4.734071330415251]}}, {"type": "Feature", "properties": {"norad_id": 18361, "name": "OSCAR 27", "group": "nnss", "lat": 40.777710376634296, "lon": 79.14561658328248, "alt_km": 1163.2302026740845, "timestamp": "2025-12-17T23:38:07.122565+00:00", "meta": {"OBJECT_NAME": "OSCAR 27", "OBJECT_ID": "1987-080A", "EPOCH": "2025-12-17T07:21:31.966272", "MEAN_MOTION": 13.44907623, "ECCENTRICITY": 0.01032691, "INCLINATION": 90.3742, "RA_OF_ASC_NODE": 79.4432, "ARG_OF_PERICENTER": 210.6095, "MEAN_ANOMALY": 148.9002, "EPHEMERIS_TYPE": 0, "CLASSIFICATION_TYPE": "U", "NORAD_CAT_ID": 18361, "ELEMENT_SET_NO": 999, "REV_AT_EPOCH": 87618, "BSTAR": 0.00014727531, "MEAN_MOTION_DOT": 9.7e-07, "MEAN_MOTION_DDOT": 0}, "tle": {"line1": "1 18361U 87080A   25351.30661998  .00000097  00000+0  14728-3 0  9990", "line2": "2 18361  90.3742  79.4432 0103269 210.6095 148.9002 13.44907623876182"}}, "geometry": {"type": "Point", "coordinates": [79.14561658328248, 40.777710376634296]}}, {"type": "Feature", "properties": {"norad_id": 18362, "name": "OSCAR 29", "group": "nnss", "lat": 44.735904393199945, "lon": 79.55571277121655, "alt_km": 1166.2092476700445, "timestamp": "2025-12-17T23:38:07.122575+00:00", "meta": {"OBJECT_NAME": "OSCAR 29", "OBJECT_ID": "1987-080B", "EPOCH": "2025-12-17T12:45:00.485568", "MEAN_MOTION": 13.44449239, "ECCENTRICITY": 0.0104189, "INCLINATION": 90.3753, "RA_OF_ASC_NODE": 79.9108, "ARG_OF_PERICENTER": 233.2547, "MEAN_ANOMALY": 137.5214, "EPHEMERIS_TYPE": 0, "CLASSIFICATION_TYPE": "U", "NORAD_CAT_ID": 18362, "ELEMENT_SET_NO": 999, "REV_AT_EPOCH": 87574, "BSTAR": 0.00012815366, "MEAN_MOTION_DOT": 8.5e-07, "MEAN_MOTION_DDOT": 0}, "tle": {"line1": "1 18362U 87080B   25351.53125562  .00000085  00000+0  12815-3 0  9990", "line2": "2 18362  90.3753  79.9108 0104189 233.2547 137.5214 13.44449239875749"}}, "geometry": {"type": "Point", "coordinates": [79.55571277121655, 44.735904393199945]}}, {"type": "Feature", "properties": {"norad_id": 19070, "name": "OSCAR 23", "group": "nnss", "lat": -47.842806845881896, "lon": -163.79925209989267, "alt_km": 1093.5874001991706, "timestamp": "2025-12-17T23:38:07.122586+00:00", "meta": {"OBJECT_NAME": "OSCAR 23", "OBJECT_ID": "1988-033A", "EPOCH": "2025-12-17T15:51:37.554912", "MEAN_MOTION": 13.27787939, "ECCENTRICITY": 0.01899396, "INCLINATION": 90.3208, "RA_OF_ASC_NODE": 16.5452, "ARG_OF_PERICENTER": 166.2513, "MEAN_ANOMALY": 311.9864, "EPHEMERIS_TYPE": 0, "CLASSIFICATION_TYPE": "U", "NORAD_CAT_ID": 19070, "ELEMENT_SET_NO": 999, "REV_AT_EPOCH": 82318, "BSTAR": 0.00016409771, "MEAN_MOTION_DOT": 9.1e-07, "MEAN_MOTION_DDOT": 0}, "tle": {"line1": "1 19070U 88033A   25351.66085133  .00000091  00000+0  16410-3 0  9991", "line2": "2 19070  90.3208  16.5452 0189939 166.2513 311.9864 13.27787939823187"}}, "geometry": {"type": "Point", "coordinates": [-163.79925209989267, -47.842806845881896]}}, {"type": "Feature", "properties": {"norad_id": 19071, "name": "OSCAR 32", "group": "nnss", "lat": -21.063857446835865, "lon": 16.811359858623984, "alt_km": 1300.8751655308706, "timestamp": "2025-12-17T23:38:07.122596+00:00", "meta": {"OBJECT_NAME": "OSCAR 32", "OBJECT_ID": "1988-033B", "EPOCH": "2025-12-17T15:17:38.406048", "MEAN_MOTION": 13.27954687, "ECCENTRICITY": 0.0188728, "INCLINATION": 90.3213, "RA_OF_ASC_NODE": 16.6767, "ARG_OF_PERICENTER": 153.2139, "MEAN_ANOMALY": 325.5255, "EPHEMERIS_TYPE": 0, "CLASSIFICATION_TYPE": "U", "NORAD_CAT_ID": 19071, "ELEMENT_SET_NO": 999, "REV_AT_EPOCH": 82330, "BSTAR": 0.00017613289, "MEAN_MOTION_DOT": 9.7e-07, "MEAN_MOTION_DDOT": 0}, "tle": {"line1": "1 19071U 88033B   25351.63725007  .00000097  00000+0  17613-3 0  9992", "line2": "2 19071  90.3213  16.6767 0188728 153.2139 325.5255 13.27954687823304"}}, "geometry": {"type": "Point", "coordinates": [16.811359858623984, -21.063857446835865]}}, {"type": "Feature", "properties": {"norad_id": 19223, "name": "NOVA 2", "group": "nnss", "lat": 82.24089031321084, "lon": 78.36001872409524, "alt_km": 1162.0359888371877, "timestamp": "2025-12-17T23:38:07.122606+00:00", "meta": {"OBJECT_NAME": "NOVA 2", "OBJECT_ID": "1988-052A", "EPOCH": "2025-12-17T12:23:27.819744", "MEAN_MOTION": 13.22936306, "ECCENTRICITY": 0.00301783, "INCLINATION": 89.9872, "RA_OF_ASC_NODE": 78.2666, "ARG_OF_PERICENTER": 3.8196, "MEAN_ANOMALY": 8.0726, "EPHEMERIS_TYPE": 0, "CLASSIFICATION_TYPE": "U", "NORAD_CAT_ID": 19223, "ELEMENT_SET_NO": 999, "REV_AT_EPOCH": 81011, "BSTAR": 0.00012439834, "MEAN_MOTION_DOT": 6.1e-07, "MEAN_MOTION_DDOT": 0}, "tle": {"line1": "1 19223U 88052A   25351.51629421  .00000061  00000+0  12440-3 0  9996", "line2": "2 19223  89.9872  78.2666 0030178   3.8196   8.0726 13.22936306810112"}}, "geometry": {"type": "Point", "coordinates": [78.36001872409524, 82.24089031321084]}}, {"type": "Feature", "properties": {"norad_id": 19419, "name": "OSCAR 25", "group": "nnss", "lat": 11.500892664872579, "lon": -159.73151033297896, "alt_km": 1067.375582588007, "timestamp": "2025-12-17T23:38:07.122616+00:00", "meta": {"OBJECT_NAME": "OSCAR 25", "OBJECT_ID": "1988-074A", "EPOCH": "2025-12-17T14:27:01.924704", "MEAN_MOTION": 13.42624251, "ECCENTRICITY": 0.00946858, "INCLINATION": 90.0343, "RA_OF_ASC_NODE": 20.2602, "ARG_OF_PERICENTER": 231.7465, "MEAN_ANOMALY": 248.936, "EPHEMERIS_TYPE": 0, "CLASSIFICATION_TYPE": "U", "NORAD_CAT_ID": 19419, "ELEMENT_SET_NO": 999, "REV_AT_EPOCH": 82705, "BSTAR": 0.00016594164, "MEAN_MOTION_DOT": 1.05e-06, "MEAN_MOTION_DDOT": 0}, "tle": {"line1": "1 19419U 88074A   25351.60210561  .00000105  00000+0  16594-3 0  9991", "line2": "2 19419  90.0343  20.2602 0094685 231.7465 248.9360 13.42624251827051"}}, "geometry": {"type": "Point", "coordinates": [-159.73151033297896, 11.500892664872579]}}, {"type": "Feature", "properties": {"norad_id": 19420, "name": "OSCAR 31", "group": "nnss", "lat": 52.18125679547267, "lon": 20.5660003318241, "alt_km": 1163.8484538809698, "timestamp": "2025-12-17T23:38:07.122627+00:00", "meta": {"OBJECT_NAME": "OSCAR 31", "OBJECT_ID": "1988-074B", "EPOCH": "2025-12-17T15:02:53.553408", "MEAN_MOTION": 13.42585391, "ECCENTRICITY": 0.0093038, "INCLINATION": 90.0359, "RA_OF_ASC_NODE": 20.611, "ARG_OF_PERICENTER": 225.8123, "MEAN_ANOMALY": 258.2561, "EPHEMERIS_TYPE": 0, "CLASSIFICATION_TYPE": "U", "NORAD_CAT_ID": 19420, "ELEMENT_SET_NO": 999, "REV_AT_EPOCH": 82716, "BSTAR": 0.00015036978, "MEAN_MOTION_DOT": 9.6e-07, "MEAN_MOTION_DDOT": 0}, "tle": {"line1": "1 19420U 88074B   25351.62700872  .00000096  00000+0  15037-3 0  9994", "line2": "2 19420  90.0359  20.6110 0093038 225.8123 258.2561 13.42585391827164"}}, "geometry": {"type": "Point", "coordinates": [20.5660003318241, 52.18125679547267]}}]}